OBJECT_NAME,OBJECT_ID,EPOCH,MEAN_MOTION,ECCENTRICITY,INCLINATION,RA_OF_ASC_NODE,ARG_OF_PERICENTER,MEAN_ANOMALY,EPHEMERIS_TYPE,CLASSIFICATION_TYPE,NORAD_CAT_ID,ELEMENT_SET_NO,REV_AT_EPOCH,BSTAR,MEAN_MOTION_DOT,MEAN_MOTION_DDOT
COSMOS 2534 (758),2019-030A,2026-07-08T14:10:15.172896,2.13102187,.00135164,64.3704,191.8956,275.0129,83.9992,0,U,44299,999,5537,0,.126E-5,0
BEIDOU-3 IGSO-2 (C39),2019-035A,2026-07-08T21:30:18.021888,1.00259673,.00396136,55.2504,158.6727,216.3247,353.2805,0,U,44337,999,2588,0,-.75E-6,0
GPS BIII-2  (PRN 18),2019-056A,2026-07-08T20:12:02.320992,2.00569904,.00631626,55.6256,330.2832,198.0526,345.4471,0,U,44506,999,5050,0,-.75E-6,0
BEIDOU-3 M24 (C46),2019-061A,2026-07-08T04:24:27.412704,1.86229343,.00085716,54.3975,182.0197,359.2404,0.7677,0,U,44542,999,4618,0,.122E-5,0
BEIDOU-3 M23 (C45),2019-061B,2026-07-08T10:30:33.647616,1.86227401,.00058609,54.3960,181.9796,339.6838,102.2392,0,U,44543,999,4619,0,.122E-5,0
EUTELSAT 5 WEST B (EGNOS/PRN 121),2019-067A,2026-07-08T22:13:51.747168,1.00271321,.00030945,0.0641,343.5260,125.7103,146.0959,0,U,44624,999,2465,0,-.28E-6,0
BEIDOU-3 M22 (C44),2019-078A,2026-07-05T08:08:09.837600,1.86227646,.00059141,53.9186,299.1896,49.8831,310.1966,0,U,44793,999,4498,0,-.58E-6,0
BEIDOU-3 M21 (C43),2019-078B,2026-07-08T03:55:41.277216,1.86228045,.00037906,53.8889,299.0507,48.5315,311.5256,0,U,44794,999,4504,0,-.63E-6,0
COSMOS 2544 (759),2019-088A,2026-07-08T03:30:22.512960,2.13103113,.00125059,65.5763,73.0319,255.7157,104.2060,0,U,44850,999,5116,0,-.22E-6,0
BEIDOU-3 M19 (C41),2019-090A,2026-07-08T03:27:30.987360,1.86231659,.00170436,56.5765,62.0989,297.4467,246.9869,0,U,44864,999,4462,0,-.45E-6,0
BEIDOU-3 M20 (C42),2019-090B,2026-07-08T14:10:44.241312,1.86231598,.0014984,56.5782,62.1188,312.3282,261.1678,0,U,44865,999,4461,0,-.46E-6,0
BEIDOU-3 G2 (C60),2020-017A,2026-07-08T22:02:37.675968,1.00270279,.00022778,2.9052,47.6385,55.8861,234.0670,0,U,45344,999,2347,0,-.128E-5,0
COSMOS 2545 (760),2020-018A,2026-07-07T20:55:22.502208,2.13102711,.00092133,64.3418,311.6924,230.0449,129.8870,0,U,45358,999,4910,0,-.52E-6,0
BEIDOU-3 G3 (C61),2020-040A,2026-07-08T21:04:00.096960,1.00267637,.00019561,2.4970,67.4789,332.6730,313.1878,0,U,45807,999,2228,0,-.341E-5,0
GPS BIII-3  (PRN 23),2020-041A,2026-07-06T04:19:38.517024,2.00558250,.00647244,56.6823,28.2076,204.5515,154.8185,0,U,45854,999,4441,0,-.55E-6,0
GALAXY 30 (WAAS/PRN 135),2020-056C,2026-07-08T18:14:15.900864,1.00270727,.00020658,0.0160,50.7515,58.6905,325.8349,0,U,46114,999,2150,0,.51E-6,0
COSMOS 2547 (705K),2020-075A,2026-07-08T12:44:16.154592,2.13100166,.0009456,64.6013,191.7631,239.7730,120.1659,0,U,46805,999,4436,0,.126E-5,0
GPS BIII-4  (PRN 14),2020-078A,2026-07-08T10:37:56.901216,2.00564882,.00743588,53.9781,209.9168,207.6371,322.5421,0,U,46826,999,4193,0,.107E-5,0
GPS BIII-5  (PRN 11),2021-054A,2026-07-08T11:15:36.821952,2.00567530,.0026254,55.1634,331.6051,228.4804,146.9342,0,U,48859,999,3718,0,-.74E-6,0
QZS-1R (QZSS/PRN 196),2021-096A,2026-07-08T15:14:10.605408,1.00247751,.07551338,37.5026,79.2668,272.1320,296.0484,0,U,49336,999,1722,0,-.271E-5,0
GSAT0223 (GALILEO 27),2021-116A,2026-07-07T12:43:58.898784,1.70476066,.00020918,57.1541,341.1270,192.1025,172.9175,0,U,49809,999,2853,0,-.72E-6,0
GSAT0224 (GALILEO 28),2021-116B,2026-07-07T08:24:14.312160,1.70476148,.00016312,57.1546,341.1306,175.8676,191.0805,0,U,49810,999,2855,0,-.71E-6,0
COSMOS 2557 (706K),2022-075A,2026-07-07T06:53:27.542976,2.13102498,.00105957,64.2857,313.7776,272.6042,87.2866,0,U,52984,999,3114,0,-.5E-6,0
COSMOS 2559 (707K),2022-130A,2026-07-08T01:05:16.495584,2.13101656,.00129742,64.2576,313.8334,180.2813,179.7291,0,U,54031,999,2913,0,-.53E-6,0
COSMOS 2564 (761),2022-161A,2026-07-08T08:35:10.413024,2.13101978,.00122475,64.7435,192.0089,225.0550,134.8784,0,U,54377,999,2808,0,.126E-5,0
GPS BIII-6  (PRN 28),2023-009A,2026-07-08T03:24:24.844608,2.00570045,.00062097,55.1237,147.6955,319.8911,217.8197,0,U,55268,999,2566,0,.71E-6,0
BEIDOU-3 G4 (C62),2023-066A,2026-07-06T07:36:57.282624,1.00266978,.00050564,0.4680,336.2679,178.9368,23.3032,0,U,56564,999,1158,0,-.268E-5,0
NVS-01 (IRNSS-1J),2023-076A,2026-07-08T21:09:22.082976,1.00267947,.00033686,2.1177,243.3863,7.3672,122.9544,0,U,56759,999,1133,0,-.32E-5,0
COSMOS 2569 (703K),2023-114A,2026-07-08T08:52:52.991328,2.13103725,.00099053,65.3140,71.9064,296.3420,63.6175,0,U,57517,999,2271,0,-.24E-6,0
BEIDOU-3 M28 (C50),2023-207A,2026-07-08T18:39:47.054880,1.86229669,.00026103,55.7718,61.5748,1.3518,358.7096,0,U,58654,999,1724,0,-.48E-6,0
BEIDOU-3 M26 (C48),2023-207B,2026-07-06T23:08:31.365024,1.86229712,.00022961,55.7724,61.6226,323.9570,36.0904,0,U,58655,999,1719,0,-.44E-6,0
